STARLINK-36888          
1 68004U 26039U   26085.25002315 -.02213986  00000+0 -70396-1 0  9995
2 68004  43.0007 315.9845 0001832 253.2966 315.6844 15.35374623  5539
STARLINK-36910          
1 68005U 26039V   26085.25002315 -.02205539  00000+0 -70303-1 0  9999
2 68005  42.9976 315.7240 0001404 276.8954  37.9378 15.35287460  5531
STARLINK-36889          
1 68006U 26039W   26085.25002315 -.01897202  00000+0 -44208-1 0  9998
2 68006  43.0002 315.8401 0001374 257.4226  11.5356 15.44724796  5539
STARLINK-36592          
1 68007U 26039X   26085.25002315 -.01805427  00000+0 -50880-1 0  9990
2 68007  42.9996 315.6433 0001539 250.4163  97.8959 15.38925681  5534
STARLINK-36911          
1 68008U 26039Y   26085.25002315 -.01878678  00000+0 -46667-1 0  9997
2 68008  42.9996 315.6533 0001776 251.9246  92.3153 15.42819274  5538
STARLINK-36956          
1 68009U 26039Z   26085.25002315 -.01942332  00000+0 -44886-1 0  9998
2 68009  43.0000 315.6876 0001591 252.9386  76.9982 15.45041547  5539
STARLINK-36953          
1 68010U 26039AA  26085.25002315 -.01870244  00000+0 -55419-1 0  9996
2 68010  42.9998 315.3160 0001477 279.0165 200.4958 15.37521279  5539
STARLINK-36991          
1 68011U 26039AB  26084.91561370  .00071790  00000+0  12157-2 0  9999
2 68011  43.0002 318.2851 0002313 263.7955  96.2642 15.50639042  4177
STARLINK-36936          
1 68012U 26039AC  26085.05701623  .00087038  00000+0  14708-2 0  9999
2 68012  42.9991 316.7417 0002671 271.6570  88.3984 15.50619146  4200
STARLINK-36967          
1 68013U 26039AD  26084.97468133  .00057688  00000+0  98136-3 0  9992
2 68013  43.0002 317.8679 0002022 272.7125  87.3504 15.50594348  4186
STARLINK-36985          
1 68014U 26039AE  26085.25002315 -.01885147  00000+0 -54017-1 0  9991
2 68014  43.0000 315.2337 0001264 282.1653 230.3993 15.38570931  5536
STARLINK-36335          
1 68015U 26040A   26085.19724990  .00497784  00000+0  30997-2 0  9992
2 68015  97.2858  34.4513 0006790 191.3476 168.7637 15.75533773  3955
