CCSDS_OMM_VERS = 2.0
CREATION_DATE  = 
ORIGINATOR     = 

OBJECT_NAME    = STARLINK-36888
OBJECT_ID      = 2026-039U
CENTER_NAME    = EARTH
REF_FRAME      = TEME
TIME_SYSTEM    = UTC
MEAN_ELEMENT_THEORY = SGP/SGP4

EPOCH          = 2026-03-26T06:00:02.000160
MEAN_MOTION    = 15.35374623
ECCENTRICITY   = .00018326
INCLINATION    = 43.0007
RA_OF_ASC_NODE = 315.9845
ARG_OF_PERICENTER = 253.2966
MEAN_ANOMALY   = 315.6844

EPHEMERIS_TYPE = 0
CLASSIFICATION_TYPE = U
NORAD_CAT_ID   = 68004
ELEMENT_SET_NO = 999
REV_AT_EPOCH   = 553
BSTAR          = -.70396335E-1
MEAN_MOTION_DOT = -.2213986E-1
MEAN_MOTION_DDOT = 0

CCSDS_OMM_VERS = 2.0
CREATION_DATE  = 
ORIGINATOR     = 

OBJECT_NAME    = STARLINK-36910
OBJECT_ID      = 2026-039V
CENTER_NAME    = EARTH
REF_FRAME      = TEME
TIME_SYSTEM    = UTC
MEAN_ELEMENT_THEORY = SGP/SGP4

EPOCH          = 2026-03-26T06:00:02.000160
MEAN_MOTION    = 15.35287460
ECCENTRICITY   = .00014049
INCLINATION    = 42.9976
RA_OF_ASC_NODE = 315.7240
ARG_OF_PERICENTER = 276.8954
MEAN_ANOMALY   = 37.9378

EPHEMERIS_TYPE = 0
CLASSIFICATION_TYPE = U
NORAD_CAT_ID   = 68005
ELEMENT_SET_NO = 999
REV_AT_EPOCH   = 553
BSTAR          = -.70302857E-1
MEAN_MOTION_DOT = -.2205539E-1
MEAN_MOTION_DDOT = 0

CCSDS_OMM_VERS = 2.0
CREATION_DATE  = 
ORIGINATOR     = 

OBJECT_NAME    = STARLINK-36889
OBJECT_ID      = 2026-039W
CENTER_NAME    = EARTH
REF_FRAME      = TEME
TIME_SYSTEM    = UTC
MEAN_ELEMENT_THEORY = SGP/SGP4

EPOCH          = 2026-03-26T06:00:02.000160
MEAN_MOTION    = 15.44724796
ECCENTRICITY   = .0001374
INCLINATION    = 43.0002
RA_OF_ASC_NODE = 315.8401
ARG_OF_PERICENTER = 257.4226
MEAN_ANOMALY   = 11.5356

EPHEMERIS_TYPE = 0
CLASSIFICATION_TYPE = U
NORAD_CAT_ID   = 68006
ELEMENT_SET_NO = 999
REV_AT_EPOCH   = 553
BSTAR          = -.4420779E-1
MEAN_MOTION_DOT = -.1897202E-1
MEAN_MOTION_DDOT = 0

CCSDS_OMM_VERS = 2.0
CREATION_DATE  = 
ORIGINATOR     = 

OBJECT_NAME    = STARLINK-36592
OBJECT_ID      = 2026-039X
CENTER_NAME    = EARTH
REF_FRAME      = TEME
TIME_SYSTEM    = UTC
MEAN_ELEMENT_THEORY = SGP/SGP4

EPOCH          = 2026-03-26T06:00:02.000160
MEAN_MOTION    = 15.38925681
ECCENTRICITY   = .0001539
INCLINATION    = 42.9996
RA_OF_ASC_NODE = 315.6433
ARG_OF_PERICENTER = 250.4163
MEAN_ANOMALY   = 97.8959

EPHEMERIS_TYPE = 0
CLASSIFICATION_TYPE = U
NORAD_CAT_ID   = 68007
ELEMENT_SET_NO = 999
REV_AT_EPOCH   = 553
BSTAR          = -.5087971E-1
MEAN_MOTION_DOT = -.1805427E-1
MEAN_MOTION_DDOT = 0

CCSDS_OMM_VERS = 2.0
CREATION_DATE  = 
ORIGINATOR     = 

OBJECT_NAME    = STARLINK-36911
OBJECT_ID      = 2026-039Y
CENTER_NAME    = EARTH
REF_FRAME      = TEME
TIME_SYSTEM    = UTC
MEAN_ELEMENT_THEORY = SGP/SGP4

EPOCH          = 2026-03-26T06:00:02.000160
MEAN_MOTION    = 15.42819274
ECCENTRICITY   = .00017766
INCLINATION    = 42.9996
RA_OF_ASC_NODE = 315.6533
ARG_OF_PERICENTER = 251.9246
MEAN_ANOMALY   = 92.3153

EPHEMERIS_TYPE = 0
CLASSIFICATION_TYPE = U
NORAD_CAT_ID   = 68008
ELEMENT_SET_NO = 999
REV_AT_EPOCH   = 553
BSTAR          = -.4666712E-1
MEAN_MOTION_DOT = -.1878678E-1
MEAN_MOTION_DDOT = 0

CCSDS_OMM_VERS = 2.0
CREATION_DATE  = 
ORIGINATOR     = 

OBJECT_NAME    = STARLINK-36956
OBJECT_ID      = 2026-039Z
CENTER_NAME    = EARTH
REF_FRAME      = TEME
TIME_SYSTEM    = UTC
MEAN_ELEMENT_THEORY = SGP/SGP4

EPOCH          = 2026-03-26T06:00:02.000160
MEAN_MOTION    = 15.45041547
ECCENTRICITY   = .00015916
INCLINATION    = 43.0000
RA_OF_ASC_NODE = 315.6876
ARG_OF_PERICENTER = 252.9386
MEAN_ANOMALY   = 76.9982

EPHEMERIS_TYPE = 0
CLASSIFICATION_TYPE = U
NORAD_CAT_ID   = 68009
ELEMENT_SET_NO = 999
REV_AT_EPOCH   = 553
BSTAR          = -.44885986E-1
MEAN_MOTION_DOT = -.1942332E-1
MEAN_MOTION_DDOT = 0

CCSDS_OMM_VERS = 2.0
CREATION_DATE  = 
ORIGINATOR     = 

OBJECT_NAME    = STARLINK-36953
OBJECT_ID      = 2026-039AA
CENTER_NAME    = EARTH
REF_FRAME      = TEME
TIME_SYSTEM    = UTC
MEAN_ELEMENT_THEORY = SGP/SGP4

EPOCH          = 2026-03-26T06:00:02.000160
MEAN_MOTION    = 15.37521279
ECCENTRICITY   = .00014778
INCLINATION    = 42.9998
RA_OF_ASC_NODE = 315.3160
ARG_OF_PERICENTER = 279.0165
MEAN_ANOMALY   = 200.4958

EPHEMERIS_TYPE = 0
CLASSIFICATION_TYPE = U
NORAD_CAT_ID   = 68010
ELEMENT_SET_NO = 999
REV_AT_EPOCH   = 553
BSTAR          = -.55419017E-1
MEAN_MOTION_DOT = -.1870244E-1
MEAN_MOTION_DDOT = 0

CCSDS_OMM_VERS = 2.0
CREATION_DATE  = 
ORIGINATOR     = 

OBJECT_NAME    = STARLINK-36991
OBJECT_ID      = 2026-039AB
CENTER_NAME    = EARTH
REF_FRAME      = TEME
TIME_SYSTEM    = UTC
MEAN_ELEMENT_THEORY = SGP/SGP4

EPOCH          = 2026-03-25T21:58:29.023680
MEAN_MOTION    = 15.50639042
ECCENTRICITY   = .0002313
INCLINATION    = 43.0002
RA_OF_ASC_NODE = 318.2851
ARG_OF_PERICENTER = 263.7955
MEAN_ANOMALY   = 96.2642

EPHEMERIS_TYPE = 0
CLASSIFICATION_TYPE = U
NORAD_CAT_ID   = 68011
ELEMENT_SET_NO = 999
REV_AT_EPOCH   = 417
BSTAR          = .12157E-2
MEAN_MOTION_DOT = .7179E-3
MEAN_MOTION_DDOT = 0

CCSDS_OMM_VERS = 2.0
CREATION_DATE  = 
ORIGINATOR     = 

OBJECT_NAME    = STARLINK-36936
OBJECT_ID      = 2026-039AC
CENTER_NAME    = EARTH
REF_FRAME      = TEME
TIME_SYSTEM    = UTC
MEAN_ELEMENT_THEORY = SGP/SGP4

EPOCH          = 2026-03-26T01:22:06.202272
MEAN_MOTION    = 15.50619146
ECCENTRICITY   = .00026712
INCLINATION    = 42.9991
RA_OF_ASC_NODE = 316.7417
ARG_OF_PERICENTER = 271.6570
MEAN_ANOMALY   = 88.3984

EPHEMERIS_TYPE = 0
CLASSIFICATION_TYPE = U
NORAD_CAT_ID   = 68012
ELEMENT_SET_NO = 999
REV_AT_EPOCH   = 420
BSTAR          = .14707966E-2
MEAN_MOTION_DOT = .87038E-3
MEAN_MOTION_DDOT = 0

CCSDS_OMM_VERS = 2.0
CREATION_DATE  = 
ORIGINATOR     = 

OBJECT_NAME    = STARLINK-36967
OBJECT_ID      = 2026-039AD
CENTER_NAME    = EARTH
REF_FRAME      = TEME
TIME_SYSTEM    = UTC
MEAN_ELEMENT_THEORY = SGP/SGP4

EPOCH          = 2026-03-25T23:23:32.466912
MEAN_MOTION    = 15.50594348
ECCENTRICITY   = .00020224
INCLINATION    = 43.0002
RA_OF_ASC_NODE = 317.8679
ARG_OF_PERICENTER = 272.7125
MEAN_ANOMALY   = 87.3504

EPHEMERIS_TYPE = 0
CLASSIFICATION_TYPE = U
NORAD_CAT_ID   = 68013
ELEMENT_SET_NO = 999
REV_AT_EPOCH   = 418
BSTAR          = .9813582E-3
MEAN_MOTION_DOT = .57688E-3
MEAN_MOTION_DDOT = 0

CCSDS_OMM_VERS = 2.0
CREATION_DATE  = 
ORIGINATOR     = 

OBJECT_NAME    = STARLINK-36985
OBJECT_ID      = 2026-039AE
CENTER_NAME    = EARTH
REF_FRAME      = TEME
TIME_SYSTEM    = UTC
MEAN_ELEMENT_THEORY = SGP/SGP4

EPOCH          = 2026-03-26T06:00:02.000160
MEAN_MOTION    = 15.38570931
ECCENTRICITY   = .00012647
INCLINATION    = 43.0000
RA_OF_ASC_NODE = 315.2337
ARG_OF_PERICENTER = 282.1653
MEAN_ANOMALY   = 230.3993

EPHEMERIS_TYPE = 0
CLASSIFICATION_TYPE = U
NORAD_CAT_ID   = 68014
ELEMENT_SET_NO = 999
REV_AT_EPOCH   = 553
BSTAR          = -.54016762E-1
MEAN_MOTION_DOT = -.1885147E-1
MEAN_MOTION_DDOT = 0

CCSDS_OMM_VERS = 2.0
CREATION_DATE  = 
ORIGINATOR     = 

OBJECT_NAME    = STARLINK-36335
OBJECT_ID      = 2026-040A
CENTER_NAME    = EARTH
REF_FRAME      = TEME
TIME_SYSTEM    = UTC
MEAN_ELEMENT_THEORY = SGP/SGP4

EPOCH          = 2026-03-26T04:44:02.391360
MEAN_MOTION    = 15.75533773
ECCENTRICITY   = .00067903
INCLINATION    = 97.2858
RA_OF_ASC_NODE = 34.4513
ARG_OF_PERICENTER = 191.3476
MEAN_ANOMALY   = 168.7637

EPHEMERIS_TYPE = 0
CLASSIFICATION_TYPE = U
NORAD_CAT_ID   = 68015
ELEMENT_SET_NO = 999
REV_AT_EPOCH   = 395
BSTAR          = .3099677E-2
MEAN_MOTION_DOT = .497784E-2
MEAN_MOTION_DDOT = 0

